     2              NAVIGATION DATA                         RINEX VERSION / TYPE
CCRINEXN V1.6.0 UX  CDDIS               04-JAN-10 21:24     PGM / RUN BY / DATE 
IGS BROADCAST EPHEMERIS FILE                                COMMENT             
    0.7451E-08 -0.1490E-07 -0.5960E-07  0.1192E-06          ION ALPHA           
    0.9011E+05 -0.6554E+05 -0.1311E+06  0.4588E+06          ION BETA            
   -0.279396772385E-08-0.133226762955E-13   319488      541 DELTA-UTC: A0,A1,T,W
    15                                                      LEAP SECONDS        
                                                            END OF HEADER       
19 10  1  4 14  0  0.0-0.768434256315E-05-0.216004991671E-11 0.000000000000E+00
    0.310000000000E+02-0.155937500000E+02 0.444804242168E-08-0.303816357296E+01
   -0.726431608200E-06 0.601971719880E-02 0.120121985674E-04 0.515369294930E+04
    0.136800000000E+06-0.838190317154E-07 0.905666683373E+00 0.298023223877E-07
    0.957600771116E+00 0.146343750000E+03-0.183509757564E+00-0.780675375406E-08
    0.245724521127E-09 0.100000000000E+01 0.156500000000E+04 0.000000000000E+00
    0.200000000000E+01 0.000000000000E+00-0.144354999065E-07 0.310000000000E+02
    0.131550000000E+06 0.000000000000E+00 0.000000000000E+00 0.000000000000E+00
20 10  1  4 14  0  0.0 0.640358775854E-04-0.795807864051E-12 0.000000000000E+00
    0.600000000000E+01-0.282187500000E+02 0.530414951055E-08-0.816528653433E+00
   -0.150315463543E-05 0.418230541982E-02 0.638887286186E-05 0.515370256424E+04
    0.136800000000E+06-0.875443220139E-07 0.289565145967E+01 0.502914190292E-07
    0.939228070733E+00 0.243718750000E+03 0.128212703792E+01-0.855892794228E-08
   -0.539665336370E-09 0.100000000000E+01 0.156500000000E+04 0.000000000000E+00
    0.200000000000E+01 0.000000000000E+00-0.745058059692E-08 0.600000000000E+01
    0.135900000000E+06 0.000000000000E+00 0.000000000000E+00 0.000000000000E+00
22 10  1  4 14  0  0.0 0.182383228093E-03-0.682121026330E-12 0.000000000000E+00
    0.800000000000E+01-0.271875000000E+02 0.522486049355E-08-0.200452037861E+01
   -0.146776437759E-05 0.514256616589E-02 0.673532485962E-05 0.515365824699E+04
    0.136800000000E+06 0.158324837685E-06 0.295474964742E+01-0.484287738800E-07
    0.937155478619E+00 0.238468750000E+03-0.188177602339E+01-0.837713465557E-08
   -0.540022494104E-09 0.100000000000E+01 0.156500000000E+04 0.000000000000E+00
    0.200000000000E+01 0.000000000000E+00-0.176951289177E-07 0.800000000000E+01
    0.129600000000E+06 0.000000000000E+00 0.000000000000E+00 0.000000000000E+00
23 10  1  4 14  0  0.0 0.383065547794E-03-0.795807864051E-12 0.000000000000E+00
    0.980000000000E+02 0.538437500000E+02 0.403981113149E-08 0.270659421873E+01
    0.277161598206E-05 0.632381404284E-02 0.112932175398E-04 0.515374360847E+04
    0.136800000000E+06-0.782310962677E-07-0.230490194762E+01 0.540167093277E-07
    0.969192701372E+00 0.167812500000E+03 0.301038918231E+01-0.775032283205E-08
   -0.750031241812E-10 0.100000000000E+01 0.156500000000E+04 0.000000000000E+00
    0.200000000000E+01 0.000000000000E+00-0.200234353542E-07 0.980000000000E+02
    0.131400000000E+06 0.000000000000E+00 0.000000000000E+00 0.000000000000E+00
24 10  1  4 14  0  0.0 0.250937417150E-03 0.329691829393E-11 0.000000000000E+00
    0.128000000000E+03 0.465312500000E+02 0.526164774018E-08-0.115284592731E+01
    0.239536166191E-05 0.603294116445E-02 0.651367008686E-05 0.515367059708E+04
    0.136800000000E+06 0.372529029846E-07 0.192785733139E+01-0.135973095894E-06
    0.949266673110E+00 0.248000000000E+03-0.558231688522E+00-0.856214236188E-08
    0.353228999120E-09 0.100000000000E+01 0.156500000000E+04 0.000000000000E+00
    0.400000000000E+01 0.000000000000E+00-0.139698386192E-08 0.128000000000E+03
    0.129600000000E+06 0.000000000000E+00 0.000000000000E+00 0.000000000000E+00
25 10  1  4 14  0  0.0 0.715577043593E-04 0.898126018001E-11 0.000000000000E+00
    0.420000000000E+02 0.643125000000E+02 0.451161649837E-08-0.599033840118E+00
    0.337325036526E-05 0.115033959737E-01 0.461377203465E-05 0.515368715668E+04
    0.136800000000E+06-0.189989805222E-06-0.135685128713E+01 0.614672899246E-07
    0.971823395271E+00 0.300250000000E+03-0.121302175612E+01-0.842749389609E-08
    0.445375694543E-09 0.100000000000E+01 0.156500000000E+04 0.000000000000E+00
    0.200000000000E+01 0.630000000000E+02-0.745058059692E-08 0.420000000000E+02
    0.129618000000E+06 0.400000000000E+01 0.000000000000E+00 0.000000000000E+00
26 10  1  4 14  0  0.0-0.707479193807E-05-0.284217094304E-11 0.000000000000E+00
    0.800000000000E+02 0.484062500000E+02 0.355443377072E-08 0.640968206922E+00
    0.284053385258E-05 0.196365589509E-01 0.119023025036E-04 0.515362589645E+04
    0.136800000000E+06-0.339001417160E-06-0.225047945524E+01 0.391155481338E-07
    0.991692744235E+00 0.172500000000E+03 0.105327192695E+01-0.784532678935E-08
   -0.166435504135E-09 0.100000000000E+01 0.156500000000E+04 0.000000000000E+00
    0.200000000000E+01 0.000000000000E+00-0.605359673500E-08 0.800000000000E+02
    0.129600000000E+06 0.000000000000E+00 0.000000000000E+00 0.000000000000E+00
27 10  1  4 14  0  0.0 0.114249996841E-03 0.329691829393E-11 0.000000000000E+00
    0.620000000000E+02 0.761562500000E+02 0.429053592654E-08-0.280978630516E+01
    0.379420816898E-05 0.217562320176E-01 0.409409403801E-05 0.515369294739E+04
    0.136800000000E+06 0.325962901115E-06-0.131971885090E+01 0.158324837685E-06
    0.976712259757E+00 0.302656250000E+03-0.149031853928E+01-0.792961607487E-08
    0.512878517434E-09 0.100000000000E+01 0.156500000000E+04 0.000000000000E+00
    0.200000000000E+01 0.000000000000E+00-0.419095158577E-08 0.620000000000E+02
    0.129618000000E+06 0.400000000000E+01 0.000000000000E+00 0.000000000000E+00
29 10  1  4 14  0  0.0 0.874493271112E-04 0.284217094304E-11 0.000000000000E+00
    0.910000000000E+02-0.417812500000E+02 0.441732685654E-08 0.356691745049E+00
   -0.207312405109E-05 0.288192636799E-02 0.129826366901E-04 0.515355078697E+04
    0.136800000000E+06-0.130385160446E-07 0.858467031558E+00-0.391155481338E-07
    0.960270147495E+00 0.131593750000E+03-0.127415331223E+01-0.797140346952E-08
    0.212866009581E-09 0.100000000000E+01 0.156500000000E+04 0.000000000000E+00
    0.280000000000E+01 0.000000000000E+00-0.884756445885E-08 0.910000000000E+02
    0.129600000000E+06 0.000000000000E+00 0.000000000000E+00 0.000000000000E+00
31 10  1  4 14  0  0.0-0.565429218113E-04 0.125055521494E-11 0.000000000000E+00
    0.530000000000E+02 0.502812500000E+02 0.436589614281E-08 0.104808843515E+01
    0.257231295109E-05 0.752699805889E-02 0.441446900368E-05 0.515359081078E+04
    0.136800000000E+06-0.242143869400E-07-0.126382881177E+01-0.199303030968E-06
    0.975172829600E+00 0.298875000000E+03-0.112542413356E+01-0.828998816843E-08
    0.351086052715E-09 0.100000000000E+01 0.156500000000E+04 0.000000000000E+00
    0.200000000000E+01 0.000000000000E+00-0.130385160446E-07 0.530000000000E+02
    0.129600000000E+06 0.000000000000E+00 0.000000000000E+00 0.000000000000E+00
32 10  1  4 14  0  0.0 0.123987440020E-03-0.784439180279E-11 0.000000000000E+00
    0.104000000000E+03-0.264687500000E+02 0.462376402690E-08 0.186491137211E+01
   -0.146403908730E-05 0.130136064254E-01 0.701472163200E-05 0.515362315941E+04
    0.136800000000E+06 0.191852450371E-06 0.300980619483E+01 0.130385160446E-07
    0.961277603585E+00 0.239812500000E+03-0.104353878333E+01-0.800569061200E-08
   -0.635383609135E-09 0.100000000000E+01 0.156500000000E+04 0.000000000000E+00
    0.200000000000E+01 0.000000000000E+00-0.325962901115E-08 0.104000000000E+03
    0.129600000000E+06 0.000000000000E+00 0.000000000000E+00 0.000000000000E+00
 4 10  1  4 15 59 44.0-0.440848525614E-03-0.189857018995E-10 0.000000000000E+00
    0.470000000000E+02 0.567500000000E+02 0.545058418157E-08 0.491826295179E+00
    0.316835939884E-05 0.913255021442E-02 0.601448118687E-05 0.515359934998E+04
    0.143984000000E+06-0.186264514923E-08 0.188018238480E+01 0.206753611565E-06
    0.939100903653E+00 0.250812500000E+03 0.582166807207E+00-0.864321716754E-08
    0.240367155114E-09 0.100000000000E+01 0.156500000000E+04 0.000000000000E+00
    0.200000000000E+01 0.000000000000E+00-0.605359673500E-08 0.470000000000E+02
    0.136818000000E+06 0.400000000000E+01 0.000000000000E+00 0.000000000000E+00
 7 10  1  4 15 59 44.0 0.486150383949E-05-0.568434188608E-12 0.000000000000E+00
    0.210000000000E+02 0.551875000000E+02 0.449018703431E-08 0.212599001138E+01
    0.293925404549E-05 0.323355174623E-02 0.442378222942E-05 0.515372821617E+04
    0.143984000000E+06-0.447034835815E-07-0.126281748334E+01 0.949949026108E-07
    0.969876943268E+00 0.299187500000E+03 0.307045598861E+01-0.829498837670E-08
    0.281083136812E-09 0.100000000000E+01 0.156500000000E+04 0.000000000000E+00
    0.200000000000E+01 0.000000000000E+00-0.107102096081E-07 0.210000000000E+02
    0.140730000000E+06 0.000000000000E+00 0.000000000000E+00 0.000000000000E+00
10 10  1  4 15 59 44.0-0.319578684866E-04-0.909494701773E-12 0.000000000000E+00
    0.100000000000E+02-0.270312500000E+02 0.487734601818E-08-0.111825748076E+01
   -0.138953328133E-05 0.899088662118E-02 0.701658427715E-05 0.515342319298E+04
    0.143984000000E+06 0.182539224625E-06 0.294737597123E+01 0.558793544769E-07
    0.955474697642E+00 0.239437500000E+03 0.635449995077E+00-0.827570185906E-08
   -0.528950604344E-09 0.100000000000E+01 0.156500000000E+04 0.000000000000E+00
    0.200000000000E+01 0.000000000000E+00-0.279396772385E-08 0.100000000000E+02
    0.143820000000E+06 0.000000000000E+00 0.000000000000E+00 0.000000000000E+00
